NORAD_CAT_ID,OBJECT_NAME,OBJECT_TYPE,EPOCH,MEAN_MOTION,ECCENTRICITY,INCLINATION,RA_OF_ASC_NODE,ARG_OF_PERICENTER,MEAN_ANOMALY,BSTAR,MEAN_MOTION_DOT,MEAN_MOTION_DDOT,TLE_LINE0,TLE_LINE1,TLE_LINE2,SEMIMAJOR_AXIS,PERIOD,APOGEE,PERIGEE,DECAYED
52340.0,STARLINK-3818,PAYLOAD,2024-03-04 20:30:44,15.08852991,0.0001319,53.2158,257.923,112.5056,247.6076,0.00021057,3.066e-05,0.0,0 STARLINK-3818,1 52340U 22045K   24064.85468391  .00003066  00000-0  21057-3 0  9990,2 52340  53.2158 257.9230 0001319 112.5056 247.6076 15.08852991104838,6917.841,95.437,540.618,538.793,0.0
52340.0,STARLINK-3818,PAYLOAD,2024-03-05 12:24:36,15.08835689,9.53e-05,53.2164,254.9477,96.5019,263.6082,5.628e-05,6.08e-06,0.0,0 STARLINK-3818,1 52340U 22045K   24065.51709237  .00000608  00000-0  56280-4 0  9997,2 52340  53.2164 254.9477 0000953  96.5019 263.6082 15.08835689104939,6917.894,95.438,540.418,539.099,0.0
52340.0,STARLINK-3818,PAYLOAD,2024-03-05 18:46:09,15.08838175,0.0001105,53.2154,253.7591,90.4383,269.6736,3.7095e-05,3.03e-06,0.0,0 STARLINK-3818,1 52340U 22045K   24065.78205296  .00000303  00000-0  37095-4 0  9997,2 52340  53.2154 253.7591 0001105  90.4383 269.6736 15.08838175104978,6917.886,95.438,540.515,538.987,0.0
52340.0,STARLINK-3818,PAYLOAD,2024-03-06 05:53:51,15.0883659,0.0001137,53.2152,251.6771,92.9193,267.1929,7.1627e-05,8.52e-06,0.0,0 STARLINK-3818,1 52340U 22045K   24066.24573503  .00000852  00000-0  71627-4 0  9996,2 52340  53.2152 251.6771 0001137  92.9193 267.1929 15.08836590105049,6917.891,95.438,540.542,538.969,0.0
52340.0,STARLINK-3818,PAYLOAD,2024-03-06 23:23:05,15.08847384,0.0001165,53.2155,248.4058,93.6294,266.4831,9.1478e-05,1.169e-05,0.0,0 STARLINK-3818,1 52340U 22045K   24066.97436991  .00001169  00000-0  91478-4 0  9993,2 52340  53.2155 248.4058 0001165  93.6294 266.4831 15.08847384105154,6917.858,95.437,540.529,538.917,0.0
52340.0,STARLINK-3818,PAYLOAD,2024-03-07 12:06:11,15.08833346,0.0001394,53.2152,246.0275,85.1,275.0151,0.00018974,2.733e-05,0.0,0 STARLINK-3818,1 52340U 22045K   24067.50430142  .00002733  00000-0  18974-3 0  9992,2 52340  53.2152 246.0275 0001394  85.1000 275.0151 15.08833346105234,6917.901,95.438,540.73,538.801,0.0
52340.0,STARLINK-3818,PAYLOAD,2024-03-08 18:18:30,15.08849216,0.0001246,53.2161,240.3777,88.4348,271.6787,0.00025103,3.71e-05,0.0,0 STARLINK-3818,1 52340U 22045K   24068.76285487  .00003710  00000-0  25103-3 0  9999,2 52340  53.2161 240.3777 0001246  88.4348 271.6787 15.08849216105426,6917.852,95.437,540.579,538.855,0.0
52340.0,STARLINK-3818,PAYLOAD,2024-03-08 21:29:16,15.08852617,0.0001324,53.2158,239.7825,97.4029,262.7113,0.0003342,5.037e-05,0.0,0 STARLINK-3818,1 52340U 22045K   24068.89533320  .00005037  00000-0  33420-3 0  9990,2 52340  53.2158 239.7825 0001324  97.4029 262.7113 15.08852617105446,6917.842,95.437,540.623,538.791,0.0
52340.0,STARLINK-3818,PAYLOAD,2024-03-09 11:47:45,15.08843876,0.0001841,53.2155,237.1056,89.8385,270.2818,0.00012134,1.644e-05,0.0,0 STARLINK-3818,1 52340U 22045K   24069.49149575  .00001644  00000-0  12134-3 0  9991,2 52340  53.2155 237.1056 0001841  89.8385 270.2818 15.08843876105538,6917.869,95.437,541.007,538.46,0.0
52340.0,STARLINK-3818,PAYLOAD,2024-03-09 18:09:17,15.08848018,0.0001958,53.2155,235.9164,95.9278,264.1937,0.00016612,2.357e-05,0.0,0 STARLINK-3818,1 52340U 22045K   24069.75645464  .00002357  00000-0  16612-3 0  9995,2 52340  53.2155 235.9164 0001958  95.9278 264.1937 15.08848018105573,6917.856,95.437,541.075,538.366,0.0
52340.0,STARLINK-3818,PAYLOAD,2024-03-10 11:38:31,15.08845621,8.73e-05,53.2216,232.6482,92.7055,267.4037,-0.0005233,-8.607e-05,0.0,0 STARLINK-3818,1 52340U 22045K   24070.48509076 -.00008607  00000-0 -52330-3 0  9998,2 52340  53.2216 232.6482 0000873  92.7055 267.4037 15.08845621105687,6917.863,95.437,540.332,539.124,0.0
52340.0,STARLINK-3818,PAYLOAD,2024-03-10 19:35:28,15.08838461,9.61e-05,53.221,231.1626,98.4588,261.6513,-0.00025586,-4.357e-05,0.0,0 STARLINK-3818,1 52340U 22045K   24070.81630038 -.00004357  00000-0 -25586-3 0  9999,2 52340  53.2210 231.1626 0000961  98.4588 261.6513 15.08838461105732,6917.885,95.438,540.415,539.085,0.0
52340.0,STARLINK-3818,PAYLOAD,2024-03-11 03:32:23,15.08836948,6.63e-05,53.2159,229.6733,93.0099,267.0969,-0.00044913,-7.428e-05,0.0,0 STARLINK-3818,1 52340U 22045K   24071.14749949 -.00007428  00000-0 -44913-3 0  9995,2 52340  53.2159 229.6733 0000663  93.0099 267.0969 15.08836948105780,6917.89,95.438,540.213,539.296,0.0
52340.0,STARLINK-3818,PAYLOAD,2024-03-12 09:44:44,15.08837097,0.0001138,53.2153,224.0212,94.5776,265.5346,0.00036381,5.506e-05,0.0,0 STARLINK-3818,1 52340U 22045K   24072.40606999  .00005506  00000-0  36381-3 0  9995,2 52340  53.2153 224.0212 0001138  94.5776 265.5346 15.08837097105970,6917.889,95.438,540.542,538.967,0.0
52340.0,STARLINK-3818,PAYLOAD,2024-03-12 16:06:16,15.08847732,0.0001244,53.2139,222.8322,89.9393,270.1742,0.00040192,6.116e-05,0.0,0 STARLINK-3818,1 52340U 22045K   24072.67102494  .00006116  00000-0  40192-3 0  9998,2 52340  53.2139 222.8322 0001244  89.9393 270.1742 15.08847732106018,6917.857,95.437,540.582,538.861,0.0
52340.0,STARLINK-3818,PAYLOAD,2024-03-13 03:13:56,15.08873622,5.54e-05,53.2146,220.7505,99.5819,260.5236,-0.00030667,-5.169e-05,0.0,0 STARLINK-3818,1 52340U 22045K   24073.13468492 -.00005169  00000-0 -30667-3 0  9998,2 52340  53.2146 220.7505 0000554  99.5819 260.5236 15.08873622106084,6917.778,95.435,540.026,539.259,0.0
52340.0,STARLINK-3818,PAYLOAD,2024-03-13 19:07:49,15.08850365,0.0001772,53.2097,217.7756,94.8906,265.2288,8.1901e-05,1.016e-05,0.0,0 STARLINK-3818,1 52340U 22045K   24073.79710022  .00001016  00000-0  81901-4 0  9992,2 52340  53.2097 217.7756 0001772  94.8906 265.2288 15.08850365106180,6917.849,95.437,540.94,538.488,0.0
52340.0,STARLINK-3818,PAYLOAD,2024-03-14 12:37:04,15.08827174,0.0002092,53.2107,214.5022,99.7772,260.3456,0.00066422,0.00010295,0.0,0 STARLINK-3818,1 52340U 22045K   24074.52575027  .00010295  00000-0  66422-3 0  9997,2 52340  53.2107 214.5022 0002092  99.7772 260.3456 15.08827174106291,6917.92,95.438,541.232,538.337,0.0
52340.0,STARLINK-3818,PAYLOAD,2024-03-14 18:58:36,15.08851251,0.0001853,53.2125,213.313,103.0178,257.1021,-7.9055e-05,-1.547e-05,0.0,0 STARLINK-3818,1 52340U 22045K   24074.79069531 -.00001547  00000-0 -79055-4 0  9993,2 52340  53.2125 213.3130 0001853 103.0178 257.1021 15.08851251106331,6917.846,95.437,540.993,538.429,0.0
52340.0,STARLINK-3818,PAYLOAD,2024-03-15 12:27:51,15.0883895,0.0001818,53.2125,210.0395,108.0331,252.0859,-7.5096e-07,-3e-06,0.0,0 STARLINK-3818,1 52340U 22045K   24075.51934095 -.00000300  00000-0 -75096-6 0  9999,2 52340  53.2125 210.0395 0001818 108.0331 252.0859 15.08838950106441,6917.884,95.438,541.006,538.491,0.0
52340.0,STARLINK-3818,PAYLOAD,2024-03-15 18:49:23,15.08836836,0.0001941,53.2154,208.8517,108.2019,251.9184,1.1242e-05,-1.09e-06,0.0,0 STARLINK-3818,1 52340U 22045K   24075.78430430 -.00000109  00000-0  11242-4 0  9999,2 52340  53.2154 208.8517 0001941 108.2019 251.9184 15.08836836106480,6917.89,95.438,541.098,538.412,0.0
52340.0,STARLINK-3818,PAYLOAD,2024-03-16 12:18:38,15.08837956,0.0002009,53.2155,205.5791,120.9355,239.1835,6.2475e-05,7.06e-06,0.0,0 STARLINK-3818,1 52340U 22045K   24076.51294219  .00000706  00000-0  62475-4 0  9990,2 52340  53.2155 205.5791 0002009 120.9355 239.1835 15.08837956106596,6917.887,95.438,541.141,538.362,0.0
52340.0,STARLINK-3818,PAYLOAD,2024-03-17 12:09:25,15.08851936,0.0001288,53.2168,201.1233,87.0801,273.0339,-7.6578e-05,-1.507e-05,0.0,0 STARLINK-3818,1 52340U 22045K   24077.50654294 -.00001507  00000-0 -76578-4 0  9994,2 52340  53.2168 201.1233 0001288  87.0801 273.0339 15.08851936106747,6917.844,95.437,540.6,538.818,0.0
52340.0,STARLINK-3818,PAYLOAD,2024-03-17 13:44:48,15.08849104,0.0001345,53.217,200.8263,90.4011,269.7135,-1.2441e-05,-4.86e-06,0.0,0 STARLINK-3818,1 52340U 22045K   24077.57278246 -.00000486  00000-0 -12441-4 0  9994,2 52340  53.2170 200.8263 0001345  90.4011 269.7135 15.08849104106755,6917.853,95.437,540.648,538.787,0.0
52340.0,STARLINK-3818,PAYLOAD,2024-03-17 15:20:12,15.08812422,0.0001678,53.2175,200.5284,98.0232,262.095,0.00055035,8.475e-05,0.0,0 STARLINK-3818,1 52340U 22045K   24077.63903077  .00008475  00000-0  55035-3 0  9997,2 52340  53.2175 200.5284 0001678  98.0232 262.0950 15.08812422106763,6917.965,95.439,540.991,538.669,0.0
52340.0,STARLINK-3818,PAYLOAD,2024-03-18 12:00:12,15.08837127,0.000154,53.2186,196.6675,96.2272,263.8896,7.8949e-05,9.69e-06,0.0,0 STARLINK-3818,1 52340U 22045K   24078.50015018  .00000969  00000-0  78949-4 0  9993,2 52340  53.2186 196.6675 0001540  96.2272 263.8896 15.08837127106897,6917.889,95.438,540.82,538.689,0.0
52340.0,STARLINK-3818,PAYLOAD,2024-03-18 18:21:44,15.08846264,0.0001605,53.2175,195.4731,101.2138,258.9034,0.00014073,1.953e-05,0.0,0 STARLINK-3818,1 52340U 22045K   24078.76510246  .00001953  00000-0  14073-3 0  9995,2 52340  53.2175 195.4731 0001605 101.2138 258.9034 15.08846264106931,6917.861,95.437,540.837,538.616,0.0
52340.0,STARLINK-3818,PAYLOAD,2024-03-19 11:50:59,15.08848408,0.0001999,53.2179,192.2025,118.2563,241.8631,8.5472e-05,1.073e-05,0.0,0 STARLINK-3818,1 52340U 22045K   24079.49374138  .00001073  00000-0  85472-4 0  9999,2 52340  53.2179 192.2025 0001999 118.2563 241.8631 15.08848408107041,6917.855,95.437,541.103,538.337,0.0
52340.0,STARLINK-3818,PAYLOAD,2024-03-20 06:55:37,15.08839937,0.0001971,53.2175,188.6336,129.5785,230.5382,-4.6656e-06,-3.62e-06,0.0,0 STARLINK-3818,1 52340U 22045K   24080.28862905 -.00000362  00000-0 -46656-5 0  9996,2 52340  53.2175 188.6336 0001971 129.5785 230.5382 15.08839937107160,6917.881,95.438,541.109,538.382,0.0
52340.0,STARLINK-3818,PAYLOAD,2024-03-20 13:17:09,15.08835881,0.0002038,53.2163,187.4447,127.6508,232.4669,-1.554e-05,-5.36e-06,0.0,0 STARLINK-3818,1 52340U 22045K   24080.55358784 -.00000536  00000-0 -15540-4 0  9991,2 52340  53.2163 187.4447 0002038 127.6508 232.4669 15.08835881107202,6917.893,95.438,541.168,538.348,0.0
